MALLIGYONG-1            
1 58400U 23179A   24232.57969126  .00011851  00000+0  51925-3 0  9997
2 58400  97.3942 118.3579 0001574  42.8517 317.2842 15.22156124 41361
